NORAD_CAT_ID,OBJECT_NAME,OBJECT_TYPE,EPOCH,MEAN_MOTION,ECCENTRICITY,INCLINATION,RA_OF_ASC_NODE,ARG_OF_PERICENTER,MEAN_ANOMALY,BSTAR,MEAN_MOTION_DOT,MEAN_MOTION_DDOT,TLE_LINE0,TLE_LINE1,TLE_LINE2,SEMIMAJOR_AXIS,PERIOD,APOGEE,PERIGEE,DECAYED
49736.0,STARLINK-3148,PAYLOAD,2022-01-01 22:00:00,15.40433205,0.0002044,53.214,176.0451,41.1858,276.8132,0.0011927,0.00048914,0.0,0 STARLINK-3148,1 49736U 21115N   22001.91667824  .00048914  00000-0  11927-2 0  9995,2 49736  53.2140 176.0451 0002044  41.1858 276.8132 15.40433205  3635,6822.967,93.48,446.226,443.437,0.0
49736.0,STARLINK-3148,PAYLOAD,2022-01-02 14:00:01,15.40492848,0.0001887,53.2139,172.9026,46.6216,10.5512,-0.00056128,-0.00023439,0.0,0 STARLINK-3148,1 49736U 21115N   22002.58334491 -.00023439  00000-0 -56128-3 0  9990,2 49736  53.2139 172.9026 0001887  46.6216  10.5512 15.40492848  5981,6822.791,93.477,445.943,443.36800000000005,0.0
49736.0,STARLINK-3148,PAYLOAD,2022-01-02 22:00:00,15.40462993,0.0002004,53.2136,171.3333,40.6423,66.1521,0.00024443,9.662e-05,0.0,0 STARLINK-3148,1 49736U 21115N   22002.91667824  .00009662  00000-0  24443-3 0  9991,2 49736  53.2136 171.3333 0002004  40.6423  66.1521 15.40462993  3644,6822.879,93.478,446.111,443.377,0.0
49736.0,STARLINK-3148,PAYLOAD,2022-01-03 14:00:01,15.40498091,0.0001781999999999,53.214,168.1909,44.2783,161.704,-0.0012407,-0.00051148,0.0,0 STARLINK-3148,1 49736U 21115N   22003.58334491 -.00051148  00000-0 -12407-2 0  9990,2 49736  53.2140 168.1909 0001782  44.2783 161.7040 15.40498091  6147,6822.775,93.476,445.856,443.424,0.0
49736.0,STARLINK-3148,PAYLOAD,2022-01-03 22:00:00,15.40433045,0.0001902,53.214,166.6215,36.9445,218.6579,0.0013111,0.00053844,0.0,0 STARLINK-3148,1 49736U 21115N   22003.91667824  .00053844  00000-0  13111-2 0  9992,2 49736  53.2140 166.6215 0001902  36.9445 218.6579 15.40433045  3635,6822.967,93.48,446.13,443.535,0.0
49736.0,STARLINK-3148,PAYLOAD,2022-01-04 12:00:00,15.40479334,0.0001786999999999,53.2147,163.8713,45.5601,206.8146,-0.00090321,-0.00037388,0.0,0 STARLINK-3148,1 49736U 21115N   22004.50001157 -.00037388  00000-0 -90321-3 0  9995,2 49736  53.2147 163.8713 0001787  45.5601 206.8146 15.40479334  6289,6822.831,93.477,445.915,443.476,0.0
49736.0,STARLINK-3148,PAYLOAD,2022-01-04 14:00:01,15.40474359,0.0001862,53.2147,163.4792,43.9036,310.8728,-0.00099012,-0.00040922,0.0,0 STARLINK-3148,1 49736U 21115N   22004.58334491 -.00040922  00000-0 -99012-3 0  9997,2 49736  53.2147 163.4792 0001862  43.9036 310.8728 15.40474359  3641,6822.845,93.478,445.981,443.44,0.0
49736.0,STARLINK-3148,PAYLOAD,2022-01-04 22:00:00,15.40436474,0.0002046,53.2148,161.9099,38.9661,5.4001,0.001201,0.00049265,0.0,0 STARLINK-3148,1 49736U 21115N   22004.91667824  .00049265  00000-0  12010-2 0  9992,2 49736  53.2148 161.9099 0002046  38.9661   5.4001 15.40436474  3634,6822.956999999999,93.48,446.218,443.426,0.0
49736.0,STARLINK-3148,PAYLOAD,2022-01-05 06:00:00,15.40453993,0.0001839,53.2153,160.3374,43.0614,50.8924,0.00033879,0.0001355,0.0,0 STARLINK-3148,1 49736U 21115N   22005.25001157  .00013550  00000-0  33879-3 0  9996,2 49736  53.2153 160.3374 0001839  43.0614  50.8924 15.40453993  6392,6822.905,93.479,446.025,443.516,0.0
49736.0,STARLINK-3148,PAYLOAD,2022-01-05 14:00:01,15.40467886,0.0001939,53.2156,158.7677,41.8479,101.6931,-0.00066763,-0.00027766,0.0,0 STARLINK-3148,1 49736U 21115N   22005.58334491 -.00027766  00000-0 -66763-3 0  9996,2 49736  53.2156 158.7677 0001939  41.8479 101.6931 15.40467886  3631,6822.864000000001,93.478,446.052,443.406,0.0
49736.0,STARLINK-3148,PAYLOAD,2022-01-05 22:00:00,15.40442962,0.0002076,53.2156,157.1983,37.0556,156.0707,0.00099954,0.00040897,0.0,0 STARLINK-3148,1 49736U 21115N   22005.91667824  .00040897  00000-0  99954-3 0  9998,2 49736  53.2156 157.1983 0002076  37.0556 156.0707 15.40442962  3644,6822.938,93.48,446.219,443.387,0.0
49736.0,STARLINK-3148,PAYLOAD,2022-01-06 06:00:00,15.40454479,0.0001879,53.2159,155.6258,39.9377,202.7779,0.00022903,9.024e-05,0.0,0 STARLINK-3148,1 49736U 21115N   22006.25001157  .00009024  00000-0  22903-3 0  9994,2 49736  53.2159 155.6258 0001879  39.9377 202.7779 15.40454479  6554,6822.904,93.479,446.051,443.487,0.0
49736.0,STARLINK-3148,PAYLOAD,2022-01-06 14:00:01,15.40462609,0.0001993,53.216,154.0564,38.1395,254.1619,-0.0006071,-0.00025289,0.0,0 STARLINK-3148,1 49736U 21115N   22006.58334491 -.00025289  00000-0 -60710-3 0  9991,2 49736  53.2160 154.0564 0001993  38.1395 254.1619 15.40462609  3619,6822.88,93.478,446.105,443.385,0.0
49736.0,STARLINK-3148,PAYLOAD,2022-01-06 22:00:00,15.40446128,0.0002124,53.2156,152.4867,33.6388,308.2417,0.00066291,0.0002694,0.0,0 STARLINK-3148,1 49736U 21115N   22006.91667824  .00026940  00000-0  66291-3 0  9990,2 49736  53.2156 152.4867 0002124  33.6388 308.2417 15.40446128  3616,6822.929,93.479,446.24300000000005,443.344,0.0
49736.0,STARLINK-3148,PAYLOAD,2022-01-07 06:00:00,15.40437754,0.0001928,53.2156,150.9143,38.3712,353.1016,0.0013466,0.00055333,0.0,0 STARLINK-3148,1 49736U 21115N   22007.25001157  .00055333  00000-0  13466-2 0  9992,2 49736  53.2156 150.9143 0001928  38.3712 353.1016 15.40437754  6702,6822.953,93.48,446.134,443.503,0.0
49736.0,STARLINK-3148,PAYLOAD,2022-01-07 14:00:01,15.404950400000002,0.0002057,53.2155,149.3452,36.5903,44.4651,-0.0017447,-0.00071566,0.0,0 STARLINK-3148,1 49736U 21115N   22007.58334491 -.00071566  00000-0 -17447-2 0  9999,2 49736  53.2155 149.3452 0002057  36.5903  44.4651 15.40495040  3649,6822.784000000002,93.476,446.05300000000005,443.246,0.0
49736.0,STARLINK-3148,PAYLOAD,2022-01-07 22:00:00,15.40450044,0.0002154,53.2149,147.7751,32.8003,97.8551,0.00049221,0.00019883,0.0,0 STARLINK-3148,1 49736U 21115N   22007.91667824  .00019883  00000-0  49221-3 0  9993,2 49736  53.2149 147.7751 0002154  32.8003  97.8551 15.40450044  3617,6822.917,93.479,446.252,443.312,0.0
49736.0,STARLINK-3148,PAYLOAD,2022-01-08 02:00:01,15.40468122,0.0002021,53.215,146.9887,35.3511,300.1574,-0.00038687,-0.00016283,0.0,0 STARLINK-3148,1 49736U 21115N   22008.08335648 -.00016283  00000-0 -38687-3 0  9995,2 49736  53.2150 146.9887 0002021  35.3511 300.1574 15.40468122  6833,6822.864000000001,93.478,446.108,443.35,0.0
49736.0,STARLINK-3148,PAYLOAD,2022-01-08 14:00:01,15.40461735,0.0002151,53.2149,144.6337,38.1673,191.669,-0.00051148,-0.0002138,0.0,0 STARLINK-3148,1 49736U 21115N   22008.58334491 -.00021380  00000-0 -51148-3 0  9996,2 49736  53.2149 144.6337 0002151  38.1673 191.6690 15.40461735  3629,6822.8830000000025,93.478,446.215,443.28,0.0
49736.0,STARLINK-3148,PAYLOAD,2022-01-08 22:00:00,15.40460579,0.0002213,53.2143,143.0635,36.1767,243.2369,0.00018832,7.348e-05,0.0,0 STARLINK-3148,1 49736U 21115N   22008.91667824  .00007348  00000-0  18832-3 0  9991,2 49736  53.2143 143.0635 0002213  36.1767 243.2369 15.40460579  6960,6822.886,93.479,446.261,443.241,0.0
49736.0,STARLINK-3148,PAYLOAD,2022-01-09 14:00:01,15.40498866,0.0002128,53.2146,139.922,36.5119,342.1281,-0.00071327,-0.0002966,0.0,0 STARLINK-3148,1 49736U 21115N   22009.58334491 -.00029660  00000-0 -71327-3 0  9997,2 49736  53.2146 139.9220 0002128  36.5119 342.1281 15.40498866  7061,6822.773,93.476,446.09,443.186,0.0
49736.0,STARLINK-3148,PAYLOAD,2022-01-09 22:00:00,15.40512511,0.0002177,53.2144,138.3515,31.1548,37.1136,-0.00063583,-0.00026506,0.0,0 STARLINK-3148,1 49736U 21115N   22009.91667824 -.00026506  00000-0 -63583-3 0  9994,2 49736  53.2144 138.3515 0002177  31.1548  37.1136 15.40512511  7110,6822.733,93.475,446.083,443.112,0.0
49736.0,STARLINK-3148,PAYLOAD,2022-01-10 14:00:01,15.4048652,0.0002149,53.2148,135.21,31.7384,135.7818,-0.0024343,-0.00099309,0.0,0 STARLINK-3148,1 49736U 21115N   22010.58334491 -.00099309  00000-0 -24343-2 0  9991,2 49736  53.2148 135.2100 0002149  31.7384 135.7818 15.40486520  3638,6822.809,93.477,446.141,443.208,0.0
49736.0,STARLINK-3148,PAYLOAD,2022-01-10 22:00:00,15.40426393,0.0002187,53.2149,133.6395,28.775,188.3189,-0.00017839,-7.724e-05,0.0,0 STARLINK-3148,1 49736U 21115N   22010.91667824 -.00007724  00000-0 -17839-3 0  9990,2 49736  53.2149 133.6395 0002187  28.7750 188.3189 15.40426393  7273,6822.986999999999,93.481,446.344,443.36,0.0
49736.0,STARLINK-3148,PAYLOAD,2022-01-11 14:00:01,15.40466674,0.0002266,53.2153,130.4984,29.5726,286.6426,-0.00078991,-0.00032756,0.0,0 STARLINK-3148,1 49736U 21115N   22011.58334491 -.00032756  00000-0 -78991-3 0  9994,2 49736  53.2153 130.4984 0002266  29.5726 286.6426 15.40466674  7370,6822.868,93.478,446.279,443.187,0.0
49736.0,STARLINK-3148,PAYLOAD,2022-01-11 22:00:00,15.40473056,0.0002283,53.2153,128.9276,25.5945,340.1888,-0.00061488,-0.00025616,0.0,0 STARLINK-3148,1 49736U 21115N   22011.91667824 -.00025616  00000-0 -61488-3 0  9990,2 49736  53.2153 128.9276 0002283  25.5945 340.1888 15.40473056  3639,6822.849,93.478,446.272,443.157,0.0
49736.0,STARLINK-3148,PAYLOAD,2022-01-12 06:00:00,15.40444481,0.0002138,53.2155,127.3555,29.6159,25.767,0.00017287,6.708e-05,0.0,0 STARLINK-3148,1 49736U 21115N   22012.25001157  .00006708  00000-0  17287-3 0  9996,2 49736  53.2155 127.3555 0002138  29.6159  25.7670 15.40444481  7476,6822.934,93.48,446.257,443.34,0.0
49736.0,STARLINK-3148,PAYLOAD,2022-01-12 14:00:01,15.40445286,0.0002409,53.2155,125.7869,28.7188,76.2401,0.00012531,4.75e-05,0.0,0 STARLINK-3148,1 49736U 21115N   22012.58334491  .00004750  00000-0  12531-3 0  9994,2 49736  53.2155 125.7869 0002409  28.7188  76.2401 15.40445286  3652,6822.931,93.479,446.44,443.153,0.0
49736.0,STARLINK-3148,PAYLOAD,2022-01-12 22:00:00,15.40467809,0.0002406,53.2153,124.2159,26.5778,127.9463,-0.00091472,-0.00037845,0.0,0 STARLINK-3148,1 49736U 21115N   22012.91667824 -.00037845  00000-0 -91472-3 0  9994,2 49736  53.2153 124.2159 0002406  26.5778 127.9463 15.40467809  7576,6822.865,93.478,446.371,443.088,0.0
